<?xml version="1.0" encoding="UTF-8"?>
<ndm xmlns:xsi="http://www.w3.org/2001/XMLSchema-instance" xsi:noNamespaceSchemaLocation="https://sanaregistry.org/r/ndmxml_unqualified/ndmxml-2.0.0-master-2.0.xsd">
<omm id="CCSDS_OMM_VERS" version="2.0">
<header><CREATION_DATE/><ORIGINATOR/></header><body><segment><metadata><OBJECT_NAME>GSAT0220 (GALILEO 24)</OBJECT_NAME><OBJECT_ID>2018-060D</OBJECT_ID><CENTER_NAME>EARTH</CENTER_NAME><REF_FRAME>TEME</REF_FRAME><TIME_SYSTEM>UTC</TIME_SYSTEM><MEAN_ELEMENT_THEORY>SGP4</MEAN_ELEMENT_THEORY></metadata><data><meanElements><EPOCH>2025-01-08T03:29:56.255136</EPOCH><MEAN_MOTION>1.70475209</MEAN_MOTION><ECCENTRICITY>.0005953</ECCENTRICITY><INCLINATION>57.2959</INCLINATION><RA_OF_ASC_NODE>355.9504</RA_OF_ASC_NODE><ARG_OF_PERICENTER>288.2210</ARG_OF_PERICENTER><MEAN_ANOMALY>71.7189</MEAN_ANOMALY></meanElements><tleParameters><EPHEMERIS_TYPE>0</EPHEMERIS_TYPE><CLASSIFICATION_TYPE>U</CLASSIFICATION_TYPE><NORAD_CAT_ID>43567</NORAD_CAT_ID><ELEMENT_SET_NO>999</ELEMENT_SET_NO><REV_AT_EPOCH>4022</REV_AT_EPOCH><BSTAR>0</BSTAR><MEAN_MOTION_DOT>-.77E-6</MEAN_MOTION_DOT><MEAN_MOTION_DDOT>0</MEAN_MOTION_DDOT></tleParameters></data></segment></body></omm>
<omm id="CCSDS_OMM_VERS" version="2.0">
<header><CREATION_DATE/><ORIGINATOR/></header><body><segment><metadata><OBJECT_NAME>GSAT0223 (GALILEO 27)</OBJECT_NAME><OBJECT_ID>2021-116A</OBJECT_ID><CENTER_NAME>EARTH</CENTER_NAME><REF_FRAME>TEME</REF_FRAME><TIME_SYSTEM>UTC</TIME_SYSTEM><MEAN_ELEMENT_THEORY>SGP4</MEAN_ELEMENT_THEORY></metadata><data><meanElements><EPOCH>2025-01-10T08:17:56.663808</EPOCH><MEAN_MOTION>1.70475417</MEAN_MOTION><ECCENTRICITY>.0003884</ECCENTRICITY><INCLINATION>57.2857</INCLINATION><RA_OF_ASC_NODE>355.7840</RA_OF_ASC_NODE><ARG_OF_PERICENTER>258.2702</ARG_OF_PERICENTER><MEAN_ANOMALY>102.4203</MEAN_ANOMALY></meanElements><tleParameters><EPHEMERIS_TYPE>0</EPHEMERIS_TYPE><CLASSIFICATION_TYPE>U</CLASSIFICATION_TYPE><NORAD_CAT_ID>49809</NORAD_CAT_ID><ELEMENT_SET_NO>999</ELEMENT_SET_NO><REV_AT_EPOCH>1927</REV_AT_EPOCH><BSTAR>0</BSTAR><MEAN_MOTION_DOT>-.88E-6</MEAN_MOTION_DOT><MEAN_MOTION_DDOT>0</MEAN_MOTION_DDOT></tleParameters></data></segment></body></omm>
<omm id="CCSDS_OMM_VERS" version="2.0">
<header><CREATION_DATE/><ORIGINATOR/></header><body><segment><metadata><OBJECT_NAME>GSAT0224 (GALILEO 28)</OBJECT_NAME><OBJECT_ID>2021-116B</OBJECT_ID><CENTER_NAME>EARTH</CENTER_NAME><REF_FRAME>TEME</REF_FRAME><TIME_SYSTEM>UTC</TIME_SYSTEM><MEAN_ELEMENT_THEORY>SGP4</MEAN_ELEMENT_THEORY></metadata><data><meanElements><EPOCH>2025-01-11T01:06:26.083008</EPOCH><MEAN_MOTION>1.70475469</MEAN_MOTION><ECCENTRICITY>.0003308</ECCENTRICITY><INCLINATION>57.2864</INCLINATION><RA_OF_ASC_NODE>355.7636</RA_OF_ASC_NODE><ARG_OF_PERICENTER>265.3247</ARG_OF_PERICENTER><MEAN_ANOMALY>277.7133</MEAN_ANOMALY></meanElements><tleParameters><EPHEMERIS_TYPE>0</EPHEMERIS_TYPE><CLASSIFICATION_TYPE>U</CLASSIFICATION_TYPE><NORAD_CAT_ID>49810</NORAD_CAT_ID><ELEMENT_SET_NO>999</ELEMENT_SET_NO><REV_AT_EPOCH>1930</REV_AT_EPOCH><BSTAR>0</BSTAR><MEAN_MOTION_DOT>-.9E-6</MEAN_MOTION_DOT><MEAN_MOTION_DDOT>0</MEAN_MOTION_DDOT></tleParameters></data></segment></body></omm>
<omm id="CCSDS_OMM_VERS" version="2.0">
<header><CREATION_DATE/><ORIGINATOR/></header><body><segment><metadata><OBJECT_NAME>GSAT0225 (GALILEO 29)</OBJECT_NAME><OBJECT_ID>2024-079A</OBJECT_ID><CENTER_NAME>EARTH</CENTER_NAME><REF_FRAME>TEME</REF_FRAME><TIME_SYSTEM>UTC</TIME_SYSTEM><MEAN_ELEMENT_THEORY>SGP4</MEAN_ELEMENT_THEORY></metadata><data><meanElements><EPOCH>2025-01-06T15:54:42.012864</EPOCH><MEAN_MOTION>1.70474420</MEAN_MOTION><ECCENTRICITY>.0003223</ECCENTRICITY><INCLINATION>54.8069</INCLINATION><RA_OF_ASC_NODE>115.8138</RA_OF_ASC_NODE><ARG_OF_PERICENTER>223.7337</ARG_OF_PERICENTER><MEAN_ANOMALY>140.5172</MEAN_ANOMALY></meanElements><tleParameters><EPHEMERIS_TYPE>0</EPHEMERIS_TYPE><CLASSIFICATION_TYPE>U</CLASSIFICATION_TYPE><NORAD_CAT_ID>59598</NORAD_CAT_ID><ELEMENT_SET_NO>999</ELEMENT_SET_NO><REV_AT_EPOCH>434</REV_AT_EPOCH><BSTAR>0</BSTAR><MEAN_MOTION_DOT>.4E-7</MEAN_MOTION_DOT><MEAN_MOTION_DDOT>0</MEAN_MOTION_DDOT></tleParameters></data></segment></body></omm>
<omm id="CCSDS_OMM_VERS" version="2.0">
<header><CREATION_DATE/><ORIGINATOR/></header><body><segment><metadata><OBJECT_NAME>GSAT0227 (GALILEO 30)</OBJECT_NAME><OBJECT_ID>2024-079C</OBJECT_ID><CENTER_NAME>EARTH</CENTER_NAME><REF_FRAME>TEME</REF_FRAME><TIME_SYSTEM>UTC</TIME_SYSTEM><MEAN_ELEMENT_THEORY>SGP4</MEAN_ELEMENT_THEORY></metadata><data><meanElements><EPOCH>2025-01-10T22:41:20.722272</EPOCH><MEAN_MOTION>1.70474834</MEAN_MOTION><ECCENTRICITY>.0002314</ECCENTRICITY><INCLINATION>54.8036</INCLINATION><RA_OF_ASC_NODE>115.6936</RA_OF_ASC_NODE><ARG_OF_PERICENTER>132.0749</ARG_OF_PERICENTER><MEAN_ANOMALY>227.9200</MEAN_ANOMALY></meanElements><tleParameters><EPHEMERIS_TYPE>0</EPHEMERIS_TYPE><CLASSIFICATION_TYPE>U</CLASSIFICATION_TYPE><NORAD_CAT_ID>59600</NORAD_CAT_ID><ELEMENT_SET_NO>999</ELEMENT_SET_NO><REV_AT_EPOCH>446</REV_AT_EPOCH><BSTAR>0</BSTAR><MEAN_MOTION_DOT>-.33E-6</MEAN_MOTION_DOT><MEAN_MOTION_DDOT>0</MEAN_MOTION_DDOT></tleParameters></data></segment></body></omm>
<omm id="CCSDS_OMM_VERS" version="2.0">
<header><CREATION_DATE/><ORIGINATOR/></header><body><segment><metadata><OBJECT_NAME>GSAT0232 (GALILEO 32)</OBJECT_NAME><OBJECT_ID>2024-167A</OBJECT_ID><CENTER_NAME>EARTH</CENTER_NAME><REF_FRAME>TEME</REF_FRAME><TIME_SYSTEM>UTC</TIME_SYSTEM><MEAN_ELEMENT_THEORY>SGP4</MEAN_ELEMENT_THEORY></metadata><data><meanElements><EPOCH>2025-01-07T06:56:25.056960</EPOCH><MEAN_MOTION>1.70473248</MEAN_MOTION><ECCENTRICITY>.0001685</ECCENTRICITY><INCLINATION>55.3639</INCLINATION><RA_OF_ASC_NODE>235.7435</RA_OF_ASC_NODE><ARG_OF_PERICENTER>183.4977</ARG_OF_PERICENTER><MEAN_ANOMALY>288.1023</MEAN_ANOMALY></meanElements><tleParameters><EPHEMERIS_TYPE>0</EPHEMERIS_TYPE><CLASSIFICATION_TYPE>U</CLASSIFICATION_TYPE><NORAD_CAT_ID>61182</NORAD_CAT_ID><ELEMENT_SET_NO>999</ELEMENT_SET_NO><REV_AT_EPOCH>191</REV_AT_EPOCH><BSTAR>0</BSTAR><MEAN_MOTION_DOT>.64E-6</MEAN_MOTION_DOT><MEAN_MOTION_DDOT>0</MEAN_MOTION_DDOT></tleParameters></data></segment></body></omm>
<omm id="CCSDS_OMM_VERS" version="2.0">
<header><CREATION_DATE/><ORIGINATOR/></header><body><segment><metadata><OBJECT_NAME>GSAT0226 (GALILEO 31)</OBJECT_NAME><OBJECT_ID>2024-167B</OBJECT_ID><CENTER_NAME>EARTH</CENTER_NAME><REF_FRAME>TEME</REF_FRAME><TIME_SYSTEM>UTC</TIME_SYSTEM><MEAN_ELEMENT_THEORY>SGP4</MEAN_ELEMENT_THEORY></metadata><data><meanElements><EPOCH>2025-01-09T20:27:26.208288</EPOCH><MEAN_MOTION>1.70473349</MEAN_MOTION><ECCENTRICITY>.0001681</ECCENTRICITY><INCLINATION>55.3612</INCLINATION><RA_OF_ASC_NODE>235.6786</RA_OF_ASC_NODE><ARG_OF_PERICENTER>102.4582</ARG_OF_PERICENTER><MEAN_ANOMALY>254.7694</MEAN_ANOMALY></meanElements><tleParameters><EPHEMERIS_TYPE>0</EPHEMERIS_TYPE><CLASSIFICATION_TYPE>U</CLASSIFICATION_TYPE><NORAD_CAT_ID>61183</NORAD_CAT_ID><ELEMENT_SET_NO>999</ELEMENT_SET_NO><REV_AT_EPOCH>194</REV_AT_EPOCH><BSTAR>0</BSTAR><MEAN_MOTION_DOT>.71E-6</MEAN_MOTION_DOT><MEAN_MOTION_DDOT>0</MEAN_MOTION_DDOT></tleParameters></data></segment></body></omm>
</ndm>