GSAT0220 (GALILEO 24)   
1 43567U 18060D   25008.14578999 -.00000077  00000+0  00000+0 0  9990
2 43567  57.2959 355.9504 0005953 288.2210  71.7189  1.70475209 40226
GSAT0223 (GALILEO 27)   
1 49809U 21116A   25010.34579472 -.00000088  00000+0  00000+0 0  9995
2 49809  57.2857 355.7840 0003884 258.2702 102.4203  1.70475417 19274
GSAT0224 (GALILEO 28)   
1 49810U 21116B   25011.04613522 -.00000090  00000+0  00000+0 0  9993
2 49810  57.2864 355.7636 0003308 265.3247 277.7133  1.70475469 19300
GSAT0225 (GALILEO 29)   
1 59598U 24079A   25006.66298626  .00000004  00000+0  00000+0 0  9998
2 59598  54.8069 115.8138 0003223 223.7337 140.5172  1.70474420  4344
GSAT0227 (GALILEO 30)   
1 59600U 24079C   25010.94537873 -.00000033  00000+0  00000+0 0  9991
2 59600  54.8036 115.6936 0002314 132.0749 227.9200  1.70474834  4469
GSAT0232 (GALILEO 32)   
1 61182U 24167A   25007.28917890  .00000064  00000+0  00000+0 0  9994
2 61182  55.3639 235.7435 0001685 183.4977 288.1023  1.70473248  1910
GSAT0226 (GALILEO 31)   
1 61183U 24167B   25009.85238667  .00000071  00000+0  00000+0 0  9996
2 61183  55.3612 235.6786 0001681 102.4582 254.7694  1.70473349  1947
